<?xml version="1.0" encoding="UTF-8"?>
<kml xmlns="http://www.opengis.net/kml/2.2" xmlns:gx="http://www.google.com/kml/ext/2.2" xmlns:kml="http://www.opengis.net/kml/2.2" xmlns:atom="http://www.w3.org/2005/Atom">
	<name>Terminals</name>
	<open>1</open>
	<Placemark>
		<name>Magic Carpet</name>
		<styleUrl>#failed40</styleUrl>
		<Polygon>
			<tessellate>1</tessellate>
			<outerBoundaryIs>
				<LinearRing>
					<coordinates>
						-117.0959034518787,47.92138626357977,0 -117.0958982525887,47.92139437419353,0 -117.0958908233654,47.9214082851121,0 -117.095910148165,47.92140647960615,0 -117.0959321023885,47.92140671984313,0 -117.0959324471435,47.9213955321635,0 -117.0959279301376,47.92138901980849,0 -117.0959034518787,47.92138626357977,0
					</coordinates>
				</LinearRing>
			</outerBoundaryIs>
		</Polygon>
	</Placemark>
	<Placemark>
		<name>Magic Carpet</name>
		<styleUrl>#failed249</styleUrl>
		<Polygon>
			<tessellate>1</tessellate>
			<outerBoundaryIs>
				<LinearRing>
					<coordinates>
						-117.0954888607682,47.92141170311297,0 -117.0954416517491,47.92140548951013,0 -117.0954308196108,47.92141604321314,0 -117.0954319840462,47.92142748632662,0 -117.0954408251965,47.92143854336889,0 -117.0954676487014,47.92143652338925,0 -117.0954818339942,47.92143776884802,0 -117.0955021681165,47.92143240522173,0 -117.0954888607682,47.92141170311297,0
					</coordinates>
				</LinearRing>
			</outerBoundaryIs>
		</Polygon>
	</Placemark>
	<Placemark>
		<name>Chair 1: Vista Cruiser</name>
		<styleUrl>#failed299</styleUrl>
		<Polygon>
			<tessellate>1</tessellate>
			<outerBoundaryIs>
				<LinearRing>
					<coordinates>
						-117.099299741853,47.91595760547001,0 -117.0991394876907,47.91593475918271,0 -117.09912186794,47.91594588758417,0 -117.0991246281495,47.91595432607927,0 -117.0991000653165,47.91596811649198,0 -117.0991274768906,47.91600003096359,0 -117.099165980458,47.91603113713421,0 -117.0991839633932,47.91605438708574,0 -117.099269977356,47.91608523259918,0 -117.0992789995193,47.91608977183644,0 -117.0993146457114,47.91610823384015,0 -117.0993666408772,47.91612814918446,0 -117.0994178672883,47.91612538955125,0 -117.0994254193268,47.9161155755079,0 -117.0993477602029,47.91607493938569,0 -117.0993796234019,47.91606332045211,0 -117.0994017174584,47.91604447358129,0 -117.0993673791886,47.91602941143345,0 -117.099417404722,47.91600428098708,0 -117.0993845813885,47.91598663858121,0 -117.099299741853,47.91595760547001,0
					</coordinates>
				</LinearRing>
			</outerBoundaryIs>
		</Polygon>
	</Placemark>
	<Placemark>
		<name>Chair 1: Vista Cruiser</name>
		<styleUrl>#failed</styleUrl>
		<Polygon>
			<tessellate>1</tessellate>
			<outerBoundaryIs>
				<LinearRing>
					<coordinates>
						-117.1125593172131,47.92297043006046,0 -117.1126896040707,47.92301431805851,0 -117.1127619571851,47.92293517779123,0 -117.1126393365421,47.92288515804512,0 -117.112615705003,47.92287275712226,0 -117.1124775491098,47.92278262593141,0 -117.1124012589304,47.92283513931991,0 -117.1124019293187,47.9228651871879,0 -117.112418772799,47.92290273537475,0 -117.1125593172131,47.92297043006046,0
					</coordinates>
				</LinearRing>
			</outerBoundaryIs>
		</Polygon>
	</Placemark>
	<Placemark>
		<name>Chair 2: Illuminator</name>
		<styleUrl>#failed322</styleUrl>
		<Polygon>
			<tessellate>1</tessellate>
			<outerBoundaryIs>
				<LinearRing>
					<coordinates>
						-117.0985610428245,47.92211634440296,0 -117.0985024519711,47.92212848419769,0 -117.0984919910306,47.92214780533365,0 -117.0984872067506,47.92217317310813,0 -117.0984795214631,47.92218970578673,0 -117.0984776419727,47.92220939758181,0 -117.0984845343132,47.92224402383571,0 -117.098481927231,47.92225938933148,0 -117.0984671441454,47.92227883052787,0 -117.0984609348614,47.92230259456614,0 -117.0984977569471,47.9223397472194,0 -117.0985952123519,47.92240668028679,0 -117.0986336574064,47.92239951013262,0 -117.0987692274342,47.92238145525936,0 -117.099022512086,47.92238068057159,0 -117.0988822447329,47.92215834362004,0 -117.098762963378,47.92213217398902,0 -117.0986622721053,47.92212124325027,0 -117.0985962912643,47.92211851150338,0 -117.0985610428245,47.92211634440296,0
					</coordinates>
				</LinearRing>
			</outerBoundaryIs>
		</Polygon>
	</Placemark>
	<Placemark>
		<name>Chair 2: Illuminator</name>
		<styleUrl>#failed365</styleUrl>
		<Polygon>
			<tessellate>1</tessellate>
			<outerBoundaryIs>
				<LinearRing>
					<coordinates>
						-117.1117981803329,47.92505717674466,0 -117.1117726481728,47.92509355951825,0 -117.1118009849551,47.92510092319207,0 -117.1118450479401,47.92510485858684,0 -117.1118729454392,47.92506933792897,0 -117.1119648335681,47.92511073916296,0 -117.1119993111485,47.92515735554696,0 -117.1120958761734,47.92519138542171,0 -117.1122843228441,47.92515964289341,0 -117.1123138295414,47.92513105410598,0 -117.1123613511096,47.92512344527461,0 -117.1119686434031,47.92501237351744,0 -117.1118851522799,47.92499074509473,0 -117.1118739471569,47.92499811218992,0 -117.111845540106,47.92504742104255,0 -117.1117981803329,47.92505717674466,0
					</coordinates>
				</LinearRing>
			</outerBoundaryIs>
		</Polygon>
	</Placemark>
	<Placemark>
		<name>Chair 3: Parkway Express</name>
		<styleUrl>#failed107</styleUrl>
		<Polygon>
			<tessellate>1</tessellate>
			<outerBoundaryIs>
				<LinearRing>
					<coordinates>
						-117.0964512266281,47.92277179195452,0 -117.0963935936685,47.92279686097501,0 -117.0964431094957,47.92284960706578,0 -117.0964542671807,47.92284804534703,0 -117.0964763030155,47.92286247565141,0 -117.0966108446546,47.92296995750269,0 -117.0966390654176,47.92299493689805,0 -117.0966437458591,47.92300203143368,0 -117.0966655140942,47.92300875680986,0 -117.0967184522689,47.92306833884353,0 -117.0967885958272,47.92303979452745,0 -117.096687163395,47.92294088379342,0 -117.0965335627088,47.92284060597137,0 -117.0965031874314,47.92280491857263,0 -117.0964852416127,47.92280137381646,0 -117.0964512266281,47.92277179195452,0
					</coordinates>
				</LinearRing>
			</outerBoundaryIs>
		</Polygon>
	</Placemark>
	<Placemark>
		<name>Chair 3: Parkway Express</name>
		<styleUrl>#failed55</styleUrl>
		<Polygon>
			<tessellate>1</tessellate>
			<outerBoundaryIs>
				<LinearRing>
					<coordinates>
						-117.1039538665147,47.93071217921199,0 -117.1039092949714,47.93072931813489,0 -117.1038471625834,47.93073971522885,0 -117.1038276694071,47.93074728599321,0 -117.1038850980544,47.9308054625225,0 -117.1038923363121,47.93086025790861,0 -117.1039682836885,47.93097835904776,0 -117.1040744651735,47.93096625840192,0 -117.1041120005526,47.93102417650083,0 -117.1040699944811,47.93103727904623,0 -117.104090427717,47.93104235855111,0 -117.104107122955,47.93106983261183,0 -117.1041473926418,47.93105317408412,0 -117.1041678181093,47.93105564230944,0 -117.1042114466907,47.93103986825624,0 -117.1041938776726,47.9310119018968,0 -117.1041959288169,47.93091572391948,0 -117.1041734876901,47.93083136882651,0 -117.1040463099918,47.93080668315633,0 -117.1040071968541,47.93074513455288,0 -117.1039983477528,47.93073659424049,0 -117.1039774793862,47.93072100558697,0 -117.1039538665147,47.93071217921199,0
					</coordinates>
				</LinearRing>
			</outerBoundaryIs>
		</Polygon>
	</Placemark>
	<Placemark>
		<name>Chair 4: Hidden Treasure</name>
		<LookAt>
			<longitude>-117.100598513469</longitude>
			<latitude>47.94155271256312</latitude>
			<altitude>0</altitude>
			<heading>-155.0785342530924</heading>
			<tilt>15.13943402722948</tilt>
			<range>56.26610716028694</range>
			<gx:altitudeMode>relativeToSeaFloor</gx:altitudeMode>
		</LookAt>
		<styleUrl>#failed128</styleUrl>
		<Polygon>
			<tessellate>1</tessellate>
			<outerBoundaryIs>
				<LinearRing>
					<coordinates>
						-117.1004353019152,47.94148573553043,0 -117.1004288064027,47.94149981353989,0 -117.1003974660898,47.94156930850666,0 -117.1004194376198,47.94157692169123,0 -117.1004443172807,47.94157438071356,0 -117.1004522308069,47.94161492127265,0 -117.1004868167961,47.94162404909164,0 -117.1005617353235,47.94163158615253,0 -117.1005311865625,47.94171037363231,0 -117.1005379543793,47.94176013541302,0 -117.1006103492825,47.94163816052733,0 -117.1006305550394,47.94163388986774,0 -117.1006630951913,47.94165115729936,0 -117.1007126456085,47.94164792897388,0 -117.1007586673088,47.94163069509327,0 -117.100765648283,47.94162447625321,0 -117.1007478714397,47.9416039427583,0 -117.1007378597596,47.9415873744905,0 -117.1007191229063,47.94155000669865,0 -117.1007169453069,47.94153364818329,0 -117.1007155736144,47.94151902750166,0 -117.1006967959332,47.94149921807471,0 -117.1006776022995,47.94148438952286,0 -117.1006481738313,47.9414688765739,0 -117.1006052852079,47.94145739446913,0 -117.1005691641556,47.94145279415679,0 -117.1005195576314,47.94144995608274,0 -117.1004875368916,47.94145621779524,0 -117.1004698771325,47.941471385124,0 -117.1004353019152,47.94148573553043,0
					</coordinates>
				</LinearRing>
			</outerBoundaryIs>
		</Polygon>
	</Placemark>
	<Placemark>
		<name>Chair 4: Hidden Treasure</name>
		<styleUrl>#failed383</styleUrl>
		<Polygon>
			<tessellate>1</tessellate>
			<outerBoundaryIs>
				<LinearRing>
					<coordinates>
						-117.1068820710682,47.93211328995076,0 -117.1067476217627,47.93213781678958,0 -117.1066194928286,47.93223861759248,0 -117.106693039446,47.93228983832707,0 -117.1066740893237,47.9322871644442,0 -117.1066538529744,47.9323169342208,0 -117.1066582601499,47.93232051747943,0 -117.1066898640078,47.93238139448815,0 -117.1067180102123,47.93238726259484,0 -117.106845973993,47.93240201749981,0 -117.1069404107055,47.93230140280028,0 -117.1070020411258,47.93223212753989,0 -117.1069480787238,47.93222674465326,0 -117.1070032248295,47.93214896717382,0 -117.1070270233412,47.9321098246776,0 -117.1070050399174,47.93209876399112,0 -117.1069495962725,47.93208819346124,0 -117.1069608800184,47.93207304332565,0 -117.1069168593245,47.93206086221365,0 -117.1068820710682,47.93211328995076,0
					</coordinates>
				</LinearRing>
			</outerBoundaryIs>
		</Polygon>
	</Placemark>
	<Placemark>
		<name>Chair 5: Beginner&apos;s Luck</name>
		<styleUrl>#failed226</styleUrl>
		<Polygon>
			<tessellate>1</tessellate>
			<outerBoundaryIs>
				<LinearRing>
					<coordinates>
						-117.0988151921568,47.92293164532184,0 -117.0988127856008,47.92294140606468,0 -117.0988377310065,47.92295006820921,0 -117.0988281348731,47.92301750056683,0 -117.0988610665625,47.92308878787101,0 -117.09895631909,47.92300814564485,0 -117.0990218513984,47.92294521351437,0 -117.0990365788395,47.92289470113641,0 -117.0990212408378,47.922847298405,0 -117.0989981508868,47.92281864697715,0 -117.0989191279933,47.92282001547885,0 -117.0989316207813,47.92289092526286,0 -117.0988851027317,47.92288794485571,0 -117.098859336322,47.92288017631321,0 -117.0988529961232,47.92288765906333,0 -117.0988325405114,47.92288931921662,0 -117.0988270450027,47.92289791935936,0 -117.0988151921568,47.92293164532184,0
					</coordinates>
				</LinearRing>
			</outerBoundaryIs>
		</Polygon>
	</Placemark>
	<Placemark>
		<name>Chair 5: Beginner&apos;s Luck</name>
		<styleUrl>#failed10</styleUrl>
		<Polygon>
			<tessellate>1</tessellate>
			<outerBoundaryIs>
				<LinearRing>
					<coordinates>
						-117.0954957604455,47.92174462103057,0 -117.0955152590415,47.92175094006516,0 -117.0955347568099,47.92172316617691,0 -117.0953102272647,47.92165459516593,0 -117.0952721980031,47.92171409220785,0 -117.0953079459519,47.92172283899891,0 -117.0953591506169,47.92174320200821,0 -117.0954673643366,47.92178156030892,0 -117.0954957604455,47.92174462103057,0
					</coordinates>
				</LinearRing>
			</outerBoundaryIs>
		</Polygon>
	</Placemark>
	<Placemark>
		<name>Chair 6: Northwood</name>
		<styleUrl>#failed156</styleUrl>
		<Polygon>
			<tessellate>1</tessellate>
			<outerBoundaryIs>
				<LinearRing>
					<coordinates>
						-117.1300264534385,47.92884779551291,0 -117.1299904925215,47.92883611780355,0 -117.1299693010364,47.92886264306274,0 -117.1298715167956,47.92888483237211,0 -117.1298669287103,47.92889344874938,0 -117.1298536518741,47.92889762149421,0 -117.1298312360592,47.92892345404639,0 -117.1299078159053,47.92894654952985,0 -117.1299273804392,47.92895462955379,0 -117.1299495933222,47.92895549551544,0 -117.1299653466214,47.92894669875161,0 -117.1300454912003,47.92897099315948,0 -117.1300721031718,47.92891009271855,0 -117.1300305064901,47.9288869850399,0 -117.1300521894626,47.92885864890929,0 -117.1300264534385,47.92884779551291,0
					</coordinates>
				</LinearRing>
			</outerBoundaryIs>
		</Polygon>
	</Placemark>
	<Placemark>
		<name>Chair 6: Northwood</name>
		<styleUrl>#failed244</styleUrl>
		<Polygon>
			<tessellate>1</tessellate>
			<outerBoundaryIs>
				<LinearRing>
					<coordinates>
						-117.1130919839662,47.92339039447056,0 -117.11312824635,47.92333763660502,0 -117.1131085060187,47.9233402041753,0 -117.1130711542339,47.92333027631657,0 -117.1130476271041,47.92331680516363,0 -117.1129799648522,47.92334031000455,0 -117.1129446813385,47.92337495849308,0 -117.1129371545329,47.92338923021989,0 -117.1129189954285,47.92339569635069,0 -117.1129242182365,47.92341433469713,0 -117.1130062027807,47.92344548489852,0 -117.1130400336789,47.92345612923491,0 -117.1130595422589,47.92345153657539,0 -117.1130767534226,47.923427645994,0 -117.1130997917438,47.92341063313185,0 -117.1131034758303,47.9233985883721,0 -117.1130919839662,47.92339039447056,0
					</coordinates>
				</LinearRing>
			</outerBoundaryIs>
		</Polygon>
	</Placemark>
	<atom:link rel="app" href="https://www.google.com/earth/about/versions/#earth-pro" title="Google Earth Pro 7.3.7.1155"></atom:link>
</kml>
